{
  "norad_id": 65022,
  "name": "STARLINK-34789",
  "history": [
    {
      "epoch": "2026-03-28T17:48:03.344832Z",
      "apogee_km": 475.9798027712086,
      "perigee_km": 474.40107026293117,
      "latitude_deg": 6.2446494476033e-05,
      "longitude_deg": 112.76101568183198,
      "height_km": 475.82805989886236,
      "semi_major_axis_km": 6853.327436517069,
      "eccentricity": 0.00011518,
      "inclination_deg": 53.1582,
      "raan_deg": 205.9327,
      "arg_perigee_deg": 70.7301,
      "mean_anomaly_deg": 289.3825,
      "mean_motion_rev_day": 15.3020825
    },
    {
      "epoch": "2026-03-29T22:01:01.047936Z",
      "apogee_km": 476.14511849304836,
      "perigee_km": 474.2508567024752,
      "latitude_deg": 2.634549901107691e-05,
      "longitude_deg": 42.900868427890636,
      "height_km": 475.81113897944715,
      "semi_major_axis_km": 6853.334987597761,
      "eccentricity": 0.0001382,
      "inclination_deg": 53.1589,
      "raan_deg": 200.4718,
      "arg_perigee_deg": 72.5041,
      "mean_anomaly_deg": 287.6111,
      "mean_motion_rev_day": 15.30205721
    }
  ]
}